IRIDIUM 113             
1 42803U 17039A   26188.89183999  .00000215  00000+0  69753-4 0  9999
2 42803  86.3988 313.5242 0002138  90.9741 269.1700 14.34217498474154
NORSAT 2                
1 42828U 17042D   26188.93293556  .00005634  00000+0  24713-3 0  9992
2 42828  97.4056   2.0510 0008783 346.3522  13.7476 15.22336597490897
TECHNOSAT               
1 42829U 17042E   26188.92645888  .00002468  00000+0  17718-3 0  9990
2 42829  97.4300 345.7984 0018061  26.8835 333.3324 15.05078294489821
FLYING LAPTOP           
1 42831U 17042G   26189.18174369  .00002449  00000+0  19415-3 0  9998
2 42831  97.4784 343.9199 0019926  54.6204 305.6879 15.01281935489605
WNISAT 1R               
1 42835U 17042L   26188.94661793  .00000998  00000+0  80803-4 0  9994
2 42835  97.4834 344.3280 0011679  86.8655 273.3906 15.01847071489628
LEMUR-2-GREENBERG       
1 42837U 17042N   26188.73183374  .00010951  00000+0  35669-3 0  9996
2 42837  97.3832   9.2717 0007164 291.5288  68.5190 15.31988787491535
LEMUR-2-FURIAUS         
1 42840U 17042R   26188.73977744  .00011334  00000+0  38105-3 0  9996
2 42840  97.3781   7.1882 0006573 358.8264   1.2961 15.30959490491354
CORVUS BC2              
1 42846U 17042X   26188.38872309  .00002737  00000+0  18929-3 0  9993
2 42846  97.4091 348.9564 0013946  47.7457 312.4951 15.06428633490109
CORVUS BC1              
1 42847U 17042Y   26188.91243132  .00001882  00000+0  13090-3 0  9993
2 42847  97.4125 350.2875 0012372  25.3395 334.8437 15.06596608490211
VRSS-2                  
1 42954U 17060A   26189.19630331  .00000926  00000+0  12499-3 0  9994
2 42954  97.6502 225.9763 0017996  35.6489 324.5923 14.81231491471561
MOHAMMED VI-A           
1 43005U 17070A   26189.21096446 -.00000053  00000+0 -40000-6 0  9994
2 43005  97.9546 261.2521 0001128  89.0054 271.1285 14.77095628467081
FENGYUN 3D              
1 43010U 17072A   26189.21929039  .00000099  00000+0  68785-4 0  9991
2 43010  99.0141 164.0228 0001927  28.0549 332.0729 14.19743493447976
NOAA 20 (JPSS-1)        
1 43013U 17073A   26189.14722111  .00000043  00000+0  41518-4 0  9993
2 43013  98.7773 128.4239 0001120 130.1429 229.9846 14.19515554447440
MAKERSAT 0              
1 43016U 17073D   26187.63911723  .00016571  00000+0  44083-3 0  9999
2 43016  97.4596  70.3150 0104976 202.8118 156.8443 15.32782580469440
RADFXSAT (FOX-1B)       
1 43017U 17073E   26189.10874832  .00004335  00000+0  19086-3 0  9993
2 43017  97.4682  55.8968 0148125 256.2215 102.2493 15.12999909468551
JILIN-1 04              
1 43022U 17074A   26189.16675926  .00009213  00000+0  21098-3 0  9995
2 43022  97.4865 299.3479 0005158 118.3699 241.8069 15.43001777477509
JILIN-1 05              
1 43023U 17074B   26189.19036368  .00005688  00000+0  17419-3 0  9994
2 43023  97.4871 295.6344 0006089 144.2279 215.9372 15.34210345477224
JILIN-1 06              
1 43024U 17074C   26189.16498933  .00003701  00000+0  11512-3 0  9994
2 43024  97.4797 292.5905 0007564 155.4269 204.7336 15.33942760477052
IRIDIUM 116             
1 43072U 17083C   26188.86646949  .00000213  00000+0  68979-4 0  9990
2 43072  86.3981 313.3560 0002352 100.7298 259.4163 14.34219217447136
IRIDIUM 130             
1 43073U 17083D   26188.90452617  .00000201  00000+0  64867-4 0  9992
2 43073  86.3984 313.6189 0002006 107.0486 253.0930 14.34215914447081
LKW-2                   
1 43080U 17084A   26189.20205557  .00002002  00000+0  79016-4 0  9997
2 43080  97.1182 228.0177 0003226 133.2155 226.9354 15.26623757474892
SUPERVIEW-1 03          
1 43099U 18002A   26189.22359539  .00011716  00000+0  28399-3 0  9999
2 43099  97.3125 274.0382 0047277 105.4980 255.1494 15.40034431471607
CARTOSAT-2F             
1 43111U 18004A   26189.15342569  .00003146  00000+0  15259-3 0  9992
2 43111  97.4778 248.5823 0002196 149.4089 210.7273 15.19236725470519
LKW-3                   
1 43146U 18006A   26189.16883123  .00004646  00000+0  13655-3 0  9993
2 43146  97.6639 350.5701 0002337 207.3813 152.7307 15.35650602471932
JILIN-1 07              
1 43159U 18008E   26189.21562490  .00005717  00000+0  17009-3 0  9993
2 43159  97.1770 208.5867 0007537 356.4476   3.6713 15.35083991468224
JILIN-1 08              
1 43160U 18008F   26189.16523829  .00003873  00000+0  12019-3 0  9999
2 43160  97.1805 207.8308 0006192  18.2461 341.9003 15.33955089468167
S-NET D                 
1 43186U 18014G   26188.78109211  .00002498  00000+0  13032-3 0  9994
2 43186  97.5338  93.4434 0006668 316.9276  43.1435 15.16872537461888
S-NET B                 
1 43187U 18014H   26188.79294882  .00002738  00000+0  14261-3 0  9997
2 43187  97.5345  93.4425 0007191 310.8381  49.2228 15.16843316461889
S-NET A                 
1 43188U 18014J   26189.04372198  .00002549  00000+0  13284-3 0  9998
2 43188  97.5353  93.9045 0007100 310.6146  49.4469 15.16882407461927
