OBJECT_NAME,OBJECT_ID,EPOCH,MEAN_MOTION,ECCENTRICITY,INCLINATION,RA_OF_ASC_NODE,ARG_OF_PERICENTER,MEAN_ANOMALY,EPHEMERIS_TYPE,CLASSIFICATION_TYPE,NORAD_CAT_ID,ELEMENT_SET_NO,REV_AT_EPOCH,BSTAR,MEAN_MOTION_DOT,MEAN_MOTION_DDOT
IRIDIUM 113,2017-039A,2026-07-07T21:24:14.975136,14.34217498,.0002138,86.3988,313.5242,90.9741,269.1700,0,U,42803,999,47415,.69753E-4,.215E-5,0
NORSAT 2,2017-042D,2026-07-07T22:23:25.632384,15.22336597,.0008783,97.4056,2.0510,346.3522,13.7476,0,U,42828,999,49089,.24713E-3,.5634E-4,0
TECHNOSAT,2017-042E,2026-07-07T22:14:06.047232,15.05078294,.0018061,97.4300,345.7984,26.8835,333.3324,0,U,42829,999,48982,.17718E-3,.2468E-4,0
FLYING LAPTOP,2017-042G,2026-07-08T04:21:42.654816,15.01281935,.0019926,97.4784,343.9199,54.6204,305.6879,0,U,42831,999,48960,.19415E-3,.2449E-4,0
WNISAT 1R,2017-042L,2026-07-07T22:43:07.789152,15.01847071,.0011679,97.4834,344.3280,86.8655,273.3906,0,U,42835,999,48962,.80803E-4,.998E-5,0
LEMUR-2-GREENBERG,2017-042N,2026-07-07T17:33:50.435136,15.31988787,.0007164,97.3832,9.2717,291.5288,68.5190,0,U,42837,999,49153,.35669E-3,.10951E-3,0
LEMUR-2-FURIAUS,2017-042R,2026-07-07T17:45:16.770816,15.30959490,.0006573,97.3781,7.1882,358.8264,1.2961,0,U,42840,999,49135,.38105E-3,.11334E-3,0
CORVUS BC2,2017-042X,2026-07-07T09:19:45.674976,15.06428633,.00139468,97.4091,348.9564,47.7457,312.4951,0,U,42846,999,49010,.18928673E-3,.2737E-4,0
CORVUS BC1,2017-042Y,2026-07-07T21:53:54.066048,15.06596608,.0012372,97.4125,350.2875,25.3395,334.8437,0,U,42847,999,49021,.1309E-3,.1882E-4,0
VRSS-2,2017-060A,2026-07-08T04:42:40.605984,14.81231491,.0017996,97.6502,225.9763,35.6489,324.5923,0,U,42954,999,47156,.12499E-3,.926E-5,0
MOHAMMED VI-A,2017-070A,2026-07-08T05:03:47.329344,14.77095628,.0001128,97.9546,261.2521,89.0054,271.1285,0,U,43005,999,46708,-.4E-6,-.53E-6,0
FENGYUN 3D,2017-072A,2026-07-08T05:15:46.689696,14.19743493,.0001927,99.0141,164.0228,28.0549,332.0729,0,U,43010,999,44797,.68785E-4,.99E-6,0
NOAA 20 (JPSS-1),2017-073A,2026-07-08T03:31:59.903904,14.19515554,.000112,98.7773,128.4239,130.1429,229.9846,0,U,43013,999,44744,.41518E-4,.43E-6,0
MAKERSAT 0,2017-073D,2026-07-06T15:20:19.728672,15.32782580,.01049762,97.4596,70.3150,202.8118,156.8443,0,U,43016,999,46944,.44083452E-3,.16571E-3,0
RADFXSAT (FOX-1B),2017-073E,2026-07-08T02:36:35.854848,15.12999909,.0148125,97.4682,55.8968,256.2215,102.2493,0,U,43017,999,46855,.19086E-3,.4335E-4,0
JILIN-1 04,2017-074A,2026-07-08T04:00:08.000064,15.43001777,.0005158,97.4865,299.3479,118.3699,241.8069,0,U,43022,999,47750,.21098E-3,.9213E-4,0
JILIN-1 05,2017-074B,2026-07-08T04:34:07.421952,15.34210345,.0006089,97.4871,295.6344,144.2279,215.9372,0,U,43023,999,47722,.17419E-3,.5688E-4,0
JILIN-1 06,2017-074C,2026-07-08T03:57:35.078112,15.33942760,.0007564,97.4797,292.5905,155.4269,204.7336,0,U,43024,999,47705,.11512E-3,.3701E-4,0
IRIDIUM 116,2017-083C,2026-07-07T20:47:42.963936,14.34219217,.0002352,86.3981,313.3560,100.7298,259.4163,0,U,43072,999,44713,.68979E-4,.213E-5,0
IRIDIUM 130,2017-083D,2026-07-07T21:42:31.061088,14.34215914,.0002006,86.3984,313.6189,107.0486,253.0930,0,U,43073,999,44708,.64867E-4,.201E-5,0
LKW-2,2017-084A,2026-07-08T04:50:57.601248,15.26623757,.0003226,97.1182,228.0177,133.2155,226.9354,0,U,43080,999,47489,.79016E-4,.2002E-4,0
SUPERVIEW-1 03,2018-002A,2026-07-08T05:21:58.641696,15.40034431,.0047277,97.3125,274.0382,105.4980,255.1494,0,U,43099,999,47160,.28399E-3,.11716E-3,0
CARTOSAT-2F,2018-004A,2026-07-08T03:40:55.979616,15.19236725,.0002196,97.4778,248.5823,149.4089,210.7273,0,U,43111,999,47051,.15259E-3,.3146E-4,0
LKW-3,2018-006A,2026-07-08T04:03:07.018272,15.35650602,.0002337,97.6639,350.5701,207.3813,152.7307,0,U,43146,999,47193,.13655E-3,.4646E-4,0
JILIN-1 07,2018-008E,2026-07-08T05:10:29.991360,15.35083991,.0007537,97.1770,208.5867,356.4476,3.6713,0,U,43159,999,46822,.17009E-3,.5717E-4,0
JILIN-1 08,2018-008F,2026-07-08T03:57:56.588256,15.33955089,.0006192,97.1805,207.8308,18.2461,341.9003,0,U,43160,999,46816,.12019E-3,.3873E-4,0
S-NET D,2018-014G,2026-07-07T18:44:46.358304,15.16872537,.0006668,97.5338,93.4434,316.9276,43.1435,0,U,43186,999,46188,.13032E-3,.2498E-4,0
S-NET B,2018-014H,2026-07-07T19:01:50.778048,15.16843316,.0007191,97.5345,93.4425,310.8381,49.2228,0,U,43187,999,46188,.14261E-3,.2738E-4,0
S-NET A,2018-014J,2026-07-08T01:02:57.579072,15.16882407,.00071,97.5353,93.9045,310.6146,49.4469,0,U,43188,999,46192,.13284E-3,.2549E-4,0
